{"fetched_at":"2026-05-03T06:27:58Z","count":17151,"tles":[{"name":"STARLINK-37482","line1":"1 68850U 26094M   26122.41670139 -.01740851  91941-3 -34129-2 0  9998","line2":"2 68850  97.2819 136.0743 0001283  92.6476 135.9322 16.00274951  2009","category":"Starlink"}]}