{
  "norad_id": 68850,
  "name": "STARLINK-37482",
  "history": [
    {
      "epoch": "2026-05-02T10:00:03.000096Z",
      "apogee_km": 274.51009939552023,
      "perigee_km": 272.803249138703,
      "latitude_deg": -48.34050667048877,
      "longitude_deg": -62.48377915893307,
      "height_km": 293.1072879087115,
      "semi_major_axis_km": 6651.793674267111,
      "eccentricity": 0.0001283,
      "inclination_deg": 97.2819,
      "raan_deg": 136.0743,
      "arg_perigee_deg": 92.6476,
      "mean_anomaly_deg": 135.9322,
      "mean_motion_rev_day": 16.00274951
    }
  ]
}